{
  "norad_id": 66127,
  "name": "STARLINK-35629",
  "history": [
    {
      "epoch": "2026-03-28T20:57:28.047456Z",
      "apogee_km": 475.79943211929003,
      "perigee_km": 474.57022031653923,
      "latitude_deg": -6.708756429062408e-05,
      "longitude_deg": 170.14224381228715,
      "height_km": 476.36898550516156,
      "semi_major_axis_km": 6853.321826217914,
      "eccentricity": 8.968e-05,
      "inclination_deg": 53.1611,
      "raan_deg": 310.7966,
      "arg_perigee_deg": 117.6607,
      "mean_anomaly_deg": 242.4484,
      "mean_motion_rev_day": 15.30210129
    },
    {
      "epoch": "2026-03-28T22:31:31.672128Z",
      "apogee_km": 476.1564467958524,
      "perigee_km": 474.285480071836,
      "latitude_deg": 4.1176128099252156e-07,
      "longitude_deg": 146.26510921091227,
      "height_km": 475.731715821117,
      "semi_major_axis_km": 6853.357963433844,
      "eccentricity": 0.0001365,
      "inclination_deg": 53.1599,
      "raan_deg": 310.4989,
      "arg_perigee_deg": 65.5392,
      "mean_anomaly_deg": 294.5751,
      "mean_motion_rev_day": 15.30198026
    },
    {
      "epoch": "2026-03-29T23:36:22.618368Z",
      "apogee_km": 475.94551637599216,
      "perigee_km": 474.4391545880535,
      "latitude_deg": -3.178154519390081e-05,
      "longitude_deg": 124.16657708919567,
      "height_km": 475.9859064215308,
      "semi_major_axis_km": 6853.3293354820225,
      "eccentricity": 0.0001099,
      "inclination_deg": 53.1587,
      "raan_deg": 305.6427,
      "arg_perigee_deg": 82.0155,
      "mean_anomaly_deg": 278.097,
      "mean_motion_rev_day": 15.30207614
    }
  ]
}